CTC2_L_00440001-01
1 40910U 26481YR  26070.40848380  .00000000  00000+0  00000-0 0  9994
2 40910  75.0000   0.0000 0000000   0.0000   0.0000 12.41559304    13
CTC2_L_00440001-02
1 40911U 25105Y   26070.40848380  .00000000  00000+0  00000-0 0  9997
2 40911  75.0000   0.0000 0000000   0.0000  90.0000 12.41559304    13
CTC2_L_00440001-03
1 40912U 23132WL  26070.40848380  .00000000  00000+0  00000-0 0  9996
2 40912  75.0000   0.0000 0000000   0.0000 180.0000 12.41559304    14
CTC2_L_00440001-04
1 40913U 25333VT  26070.40848380  .00000000  00000+0  00000-0 0  9992
2 40913  75.0000   0.0000 0000000   0.0000 270.0000 12.41559304    15
CTC2_L_00440002-01
1 40914U 25193TD  26070.40848380  .00000000  00000+0  00000-0 0  9997
2 40914  75.0000  12.0000 0000000   0.0000  12.0000 12.41559304    13
CTC2_L_00440002-02
1 40915U 25319QS  26070.40848380  .00000000  00000+0  00000-0 0  9998
2 40915  75.0000  12.0000 0000000   0.0000 102.0000 12.41559304    14
CTC2_L_00440002-03
1 40916U 22418RO  26070.40848380  .00000000  00000+0  00000-0 0  9996
2 40916  75.0000  12.0000 0000000   0.0000 192.0000 12.41559304    14
CTC2_L_00440002-04
1 40917U 25591TX  26070.40848380  .00000000  00000+0  00000-0 0  9992
2 40917  75.0000  12.0000 0000000   0.0000 282.0000 12.41559304    15
CTC2_L_00440003-01
1 40918U 26541VY  26070.40848380  .00000000  00000+0  00000-0 0  9999
2 40918  75.0000  24.0000 0000000   0.0000  24.0000 12.41559304    13
CTC2_L_00440003-02
1 40919U 22366YA  26070.40848380  .00000000  00000+0  00000-0 0  9991
2 40919  75.0000  24.0000 0000000   0.0000 114.0000 12.41559304    14
CTC2_L_00440003-03
1 40920U 24965TU  26070.40848380  .00000000  00000+0  00000-0 0  9990
2 40920  75.0000  24.0000 0000000   0.0000 204.0000 12.41559304    16
CTC2_L_00440003-04
1 40921U 26892LS  26070.40848380  .00000000  00000+0  00000-0 0  9992
2 40921  75.0000  24.0000 0000000   0.0000 294.0000 12.41559304    16
CTC2_L_00440004-01
1 40922U 22449XQ  26070.40848380  .00000000  00000+0  00000-0 0  9997
2 40922  75.0000  36.0000 0000000   0.0000  36.0000 12.41559304    14
CTC2_L_00440004-02
1 40923U 24573ZV  26070.40848380  .00000000  00000+0  00000-0 0  9998
2 40923  75.0000  36.0000 0000000   0.0000 126.0000 12.41559304    15
CTC2_L_00440004-03
1 40924U 24386UP  26070.40848380  .00000000  00000+0  00000-0 0  9991
2 40924  75.0000  36.0000 0000000   0.0000 216.0000 12.41559304    16
CTC2_L_00440004-04
1 40925U 26104DL  26070.40848380  .00000000  00000+0  00000-0 0  9992
2 40925  75.0000  36.0000 0000000   0.0000 306.0000 12.41559304    17
CTC2_L_00440005-01
1 40926U 23544UI  26070.40848380  .00000000  00000+0  00000-0 0  9998
2 40926  75.0000  48.0000 0000000   0.0000  48.0000 12.41559304    14
CTC2_L_00440005-02
1 40927U 25954MM  26070.40848380  .00000000  00000+0  00000-0 0  9996
2 40927  75.0000  48.0000 0000000   0.0000 138.0000 12.41559304    15
CTC2_L_00440005-03
1 40928U 23902OQ  26070.40848380  .00000000  00000+0  00000-0 0  9998
2 40928  75.0000  48.0000 0000000   0.0000 228.0000 12.41559304    16
CTC2_L_00440005-04
1 40929U 22218LO  26070.40848380  .00000000  00000+0  00000-0 0  9998
2 40929  75.0000  48.0000 0000000   0.0000 318.0000 12.41559304    17
CTC2_L_00440006-01
1 40930U 25203OX  26070.40848380  .00000000  00000+0  00000-0 0  9997
2 40930  75.0000  60.0000 0000000   0.0000  60.0000 12.41559304    17
CTC2_L_00440006-02
1 40931U 25785YI  26070.40848380  .00000000  00000+0  00000-0 0  9993
2 40931  75.0000  60.0000 0000000   0.0000 150.0000 12.41559304    18
CTC2_L_00440006-03
1 40932U 25236XL  26070.40848380  .00000000  00000+0  00000-0 0  9995
2 40932  75.0000  60.0000 0000000   0.0000 240.0000 12.41559304    19
CTC2_L_00440006-04
1 40933U 24826CL  26070.40848380  .00000000  00000+0  00000-0 0  9990
2 40933  75.0000  60.0000 0000000   0.0000 330.0000 12.41559304    10
CTC2_L_00440007-01
1 40934U 24801AE  26070.40848380  .00000000  00000+0  00000-0 0  9994
2 40934  75.0000  72.0000 0000000   0.0000  72.0000 12.41559304    17
CTC2_L_00440007-02
1 40935U 26581IB  26070.40848380  .00000000  00000+0  00000-0 0  9992
2 40935  75.0000  72.0000 0000000   0.0000 162.0000 12.41559304    18
CTC2_L_00440007-03
1 40936U 24168IY  26070.40848380  .00000000  00000+0  00000-0 0  9992
2 40936  75.0000  72.0000 0000000   0.0000 252.0000 12.41559304    19
CTC2_L_00440007-04
1 40937U 23154AR  26070.40848380  .00000000  00000+0  00000-0 0  9997
2 40937  75.0000  72.0000 0000000   0.0000 342.0000 12.41559304    10
CTC2_L_00440008-01
1 40938U 23011KA  26070.40848380  .00000000  00000+0  00000-0 0  9990
2 40938  75.0000  84.0000 0000000   0.0000  84.0000 12.41559304    17
CTC2_L_00440008-02
1 40939U 22539XX  26070.40848380  .00000000  00000+0  00000-0 0  9995
2 40939  75.0000  84.0000 0000000   0.0000 174.0000 12.41559304    18
CTC2_L_00440008-03
1 40940U 26224BR  26070.40848380  .00000000  00000+0  00000-0 0  9992
2 40940  75.0000  84.0000 0000000   0.0000 264.0000 12.41559304    10
CTC2_L_00440008-04
1 40941U 24594PT  26070.40848380  .00000000  00000+0  00000-0 0  9991
2 40941  75.0000  84.0000 0000000   0.0000 354.0000 12.41559304    11
CTC2_L_00440009-01
1 40942U 24628FE  26070.40848380  .00000000  00000+0  00000-0 0  9990
2 40942  75.0000  96.0000 0000000   0.0000  96.0000 12.41559304    18
CTC2_L_00440009-02
1 40943U 24547JL  26070.40848380  .00000000  00000+0  00000-0 0  9991
2 40943  75.0000  96.0000 0000000   0.0000 186.0000 12.41559304    19
CTC2_L_00440009-03
1 40944U 23551GB  26070.40848380  .00000000  00000+0  00000-0 0  9996
2 40944  75.0000  96.0000 0000000   0.0000 276.0000 12.41559304    10
CTC2_L_00440009-04
1 40945U 24935RC  26070.40848380  .00000000  00000+0  00000-0 0  9994
2 40945  75.0000  96.0000 0000000   0.0000   6.0000 12.41559304    12
CTC2_L_00440010-01
1 40946U 23004BU  26070.40848380  .00000000  00000+0  00000-0 0  9991
2 40946  75.0000 108.0000 0000000   0.0000 108.0000 12.41559304    10
CTC2_L_00440010-02
1 40947U 25511FK  26070.40848380  .00000000  00000+0  00000-0 0  9997
2 40947  75.0000 108.0000 0000000   0.0000 198.0000 12.41559304    10
CTC2_L_00440010-03
1 40948U 26299XB  26070.40848380  .00000000  00000+0  00000-0 0  9992
2 40948  75.0000 108.0000 0000000   0.0000 288.0000 12.41559304    11
CTC2_L_00440010-04
1 40949U 23030ZX  26070.40848380  .00000000  00000+0  00000-0 0  9993
2 40949  75.0000 108.0000 0000000   0.0000  18.0000 12.41559304    13
CTC2_L_00440011-01
1 40950U 22580II  26070.40848380  .00000000  00000+0  00000-0 0  9994
2 40950  75.0000 120.0000 0000000   0.0000 120.0000 12.41559304    13
CTC2_L_00440011-02
1 40951U 22375GJ  26070.40848380  .00000000  00000+0  00000-0 0  9997
2 40951  75.0000 120.0000 0000000   0.0000 210.0000 12.41559304    14
CTC2_L_00440011-03
1 40952U 25095MR  26070.40848380  .00000000  00000+0  00000-0 0  9990
2 40952  75.0000 120.0000 0000000   0.0000 300.0000 12.41559304    15
CTC2_L_00440011-04
1 40953U 24180RE  26070.40848380  .00000000  00000+0  00000-0 0  9995
2 40953  75.0000 120.0000 0000000   0.0000  30.0000 12.41559304    16
CTC2_L_00440012-01
1 40954U 22088GV  26070.40848380  .00000000  00000+0  00000-0 0  9991
2 40954  75.0000 132.0000 0000000   0.0000 132.0000 12.41559304    13
CTC2_L_00440012-02
1 40955U 24826CK  26070.40848380  .00000000  00000+0  00000-0 0  9994
2 40955  75.0000 132.0000 0000000   0.0000 222.0000 12.41559304    14
CTC2_L_00440012-03
1 40956U 23222MY  26070.40848380  .00000000  00000+0  00000-0 0  9994
2 40956  75.0000 132.0000 0000000   0.0000 312.0000 12.41559304    15
CTC2_L_00440012-04
1 40957U 22196UX  26070.40848380  .00000000  00000+0  00000-0 0  9994
2 40957  75.0000 132.0000 0000000   0.0000  42.0000 12.41559304    16
CTC2_L_00440013-01
1 40958U 24081CV  26070.40848380  .00000000  00000+0  00000-0 0  9990
2 40958  75.0000 144.0000 0000000   0.0000 144.0000 12.41559304    13
CTC2_L_00440013-02
1 40959U 23938OK  26070.40848380  .00000000  00000+0  00000-0 0  9991
2 40959  75.0000 144.0000 0000000   0.0000 234.0000 12.41559304    14
CTC2_L_00440013-03
1 40960U 22368PE  26070.40848380  .00000000  00000+0  00000-0 0  9999
2 40960  75.0000 144.0000 0000000   0.0000 324.0000 12.41559304    16
CTC2_L_00440013-04
1 40961U 23970QW  26070.40848380  .00000000  00000+0  00000-0 0  9990
2 40961  75.0000 144.0000 0000000   0.0000  54.0000 12.41559304    17
CTC2_L_00440014-01
1 40962U 25225WO  26070.40848380  .00000000  00000+0  00000-0 0  9996
2 40962  75.0000 156.0000 0000000   0.0000 156.0000 12.41559304    14
CTC2_L_00440014-02
1 40963U 22770FG  26070.40848380  .00000000  00000+0  00000-0 0  9999
2 40963  75.0000 156.0000 0000000   0.0000 246.0000 12.41559304    15
CTC2_L_00440014-03
1 40964U 22042BY  26070.40848380  .00000000  00000+0  00000-0 0  9992
2 40964  75.0000 156.0000 0000000   0.0000 336.0000 12.41559304    16
CTC2_L_00440014-04
1 40965U 25257IQ  26070.40848380  .00000000  00000+0  00000-0 0  9994
2 40965  75.0000 156.0000 0000000   0.0000  66.0000 12.41559304    17
CTC2_L_00440015-01
1 40966U 25312BJ  26070.40848380  .00000000  00000+0  00000-0 0  9997
2 40966  75.0000 168.0000 0000000   0.0000 168.0000 12.41559304    14
CTC2_L_00440015-02
1 40967U 24661SJ  26070.40848380  .00000000  00000+0  00000-0 0  9994
2 40967  75.0000 168.0000 0000000   0.0000 258.0000 12.41559304    15
CTC2_L_00440015-03
1 40968U 25553EC  26070.40848380  .00000000  00000+0  00000-0 0  9996
2 40968  75.0000 168.0000 0000000   0.0000 348.0000 12.41559304    16
CTC2_L_00440015-04
1 40969U 23032DY  26070.40848380  .00000000  00000+0  00000-0 0  9997
2 40969  75.0000 168.0000 0000000   0.0000  78.0000 12.41559304    17
CTC2_L_00440016-01
1 40970U 22410WT  26070.40848380  .00000000  00000+0  00000-0 0  9998
2 40970  75.0000 180.0000 0000000   0.0000 180.0000 12.41559304    17
CTC2_L_00440016-02
1 40971U 26246GY  26070.40848380  .00000000  00000+0  00000-0 0  9990
2 40971  75.0000 180.0000 0000000   0.0000 270.0000 12.41559304    18
